{"version": 0.6, "generator": "Overpass API 0.7.62.4 2390de5a", "osm3s": {"timestamp_osm_base": "2025-02-06T23:39:45Z", "copyright": "The data included in this document is from www.openstreetmap.org. The data is made available under ODbL."}, "elements": [{"type": "node", "id": 5951067701, "lat": 24.8212487, "lon": 56.0792839, "tags": {"name": "\u0627\u0644\u0648\u0642\u0629", "name:ar": "\u0627\u0644\u0648\u0642\u0629", "name:en": "Al Warqa", "name:es": "Al Warqa", "place": "suburb"}}, {"type": "node", "id": 12153460994, "lat": 24.8116493, "lon": 56.1262135, "tags": {"GNS:id": "-784367", "alt_name": "\u015eufayr\u012b", "name": "Sufayri", "name:en": "Sufayri", "name:es": "Sufayri", "name:fr": "Sufayri", "place": "suburb", "source": "https://www.mindat.org/feature-290729.html;https://www.agda.ae/en/catalogue/tna/fco/18/1796/n/1", "wikidata": "Q7634460"}}, {"type": "node", "id": 12153468451, "lat": 24.8147352, "lon": 56.0992536, "tags": {"GNS:id": "-784269", "alt_name": "Sha'biyyat Shariyyah", "name": "Shariyah", "name:en": "Shariyah", "name:es": "Shariyah", "name:fr": "Shariyah", "place": "suburb", "source": "https://www.mindat.org/feature-290823.html;The national atlas of the United Arab Emirates", "wikidata": "Q7489755"}}, {"type": "node", "id": 12373079466, "lat": 24.7893029, "lon": 56.1139426, "tags": {"GNS:id": "-783133", "alt_name": "\u1e28ayl", "name": "Hayl", "name:en": "Hayl", "name:es": "Hayl", "name:fr": "Hayl", "place": "suburb", "source": "https://www.agda.ae/en/catalogue/tna/fco/18/1796/n/1"}}, {"type": "node", "id": 12473659492, "lat": 24.7431659, "lon": 55.7936863, "tags": {"name": "New Shiwayb", "name:en": "New Shiwayb", "name:es": "New Shiwayb", "name:fr": "New Shiwayb", "place": "suburb"}}]}